STARLINK-31021          
1 58518U 23191L   24004.58334491 -.00057420  00000+0 -22009-2 0  9994
2 58518  42.9996 119.6214 0001423 266.6938 346.2102 15.25931675  5717
STARLINK-31010          
1 58519U 23191M   24004.25001157  .00063401  00000+0  24147-2 0  9998
2 58519  42.9997 120.8780 0001242 236.3801 232.0175 15.25883447  5606
STARLINK-31003          
1 58520U 23191N   24002.75001157  .00058012  00000+0  22112-2 0  9995
2 58520  43.0008 130.7456 0002124 282.4001   2.2459 15.25893385  5421
STARLINK-31015          
1 58521U 23191P   24004.58334491  .00058848  00000+0  21841-2 0  9994
2 58521  43.0005 120.3733 0002027 299.6617   6.4126 15.26768887  5647
STARLINK-31023          
1 58522U 23191Q   24003.33334491 -.00020052  00000+0 -75845-3 0  9999
2 58522  43.0006 127.3965 0001775 288.1087 349.6213 15.25923273  5602
STARLINK-30932          
1 58523U 23191R   24004.25001157  .00047697  00000+0  18237-2 0  9995
2 58523  43.0007 122.2026 0001288 251.9158  39.6709 15.25869134  5580
STARLINK-30992          
1 58524U 23191S   24004.25001157  .00033536  00000+0  12871-2 0  9991
2 58524  43.0008 122.1726 0001916 256.6973  47.3342 15.25882328  5481
STARLINK-30948          
1 58525U 23191T   24004.25001157  .00032121  00000+0  12333-2 0  9994
2 58525  43.0007 122.1424 0001465 266.7957  49.6694 15.25886189  5652
STARLINK-31013          
1 58526U 23191U   24003.91667824 -.00012176  00000+0 -45625-3 0  9997
2 58526  43.0009 123.9910 0001824 275.6320  20.0147 15.25918626  5621
STARLINK-31001          
1 58527U 23191V   24004.58334491 -.00152784  00000+0 -59380-2 0  9995
2 58527  43.0002 118.1734 0001326 275.4584 202.1398 15.25991290  5553
STARLINK-31004          
1 58528U 23191W   24004.25001157 -.00036034  00000+0 -13744-2 0  9993
2 58528  43.0006 122.0821 0001642 269.9868  71.3799 15.25909208  5642
STARLINK-30988          
1 58529U 23191X   24004.58334491 -.00128710  00000+0 -49868-2 0  9999
2 58529  43.0006 120.1769 0001549 276.7819 110.2344 15.25975996  5164
STARLINK-31009          
1 58530U 23191Y   24004.25001157 -.00004252  00000+0 -15281-3 0  9992
2 58530  43.0005 122.0224 0001688 258.0104 108.2170 15.25902002  5652
STARLINK-31012          
1 58531U 23192A   24004.25001157  .00008233  00000+0  30964-3 0  9990
2 58531  53.1602 155.6170 0001608 152.6802 309.5487 15.28013789  5415
STARLINK-31035          
1 58532U 23192B   24004.58334491 -.00792935  00000+0 -18579-1 0  9994
2 58532  53.1597 152.4982 0001399  98.1533 105.2403 15.44136538  5490
STARLINK-31036          
1 58533U 23192C   24002.83702889  .00033274  00000+0  74615-3 0  9998
2 58533  53.1604 161.9311 0001066 218.3585 141.7346 15.43130313  5209
STARLINK-30936          
1 58534U 23192D   24004.25001157  .00069403  00000+0  24963-2 0  9990
2 58534  53.1598 155.4672 0001262 136.3952  41.0873 15.28001771  5424
STARLINK-31032          
1 58535U 23192E   24004.58334491 -.00113702  00000+0 -41447-2 0  9997
2 58535  53.1602 154.0229 0001331  87.8717  74.7150 15.28104318  5488
STARLINK-31037          
1 58536U 23192F   24004.58334491 -.01494926  00000+0 -43772-1 0  9991
2 58536  53.1607 153.8156 0002399  78.2733 189.9809 15.37890009  5486
STARLINK-31041          
1 58537U 23192G   24003.91667824  .00067684  00000+0  24389-2 0  9995
2 58537  53.1601 157.0080 0001122 116.8090  28.0053 15.27954262  5453
STARLINK-31014          
1 58538U 23192H   24004.58334491 -.00037202  00000+0 -13372-2 0  9996
2 58538  53.1605 153.8226 0001693 118.5504 145.2395 15.28018077  5420
STARLINK-31055          
1 58539U 23192J   24004.25001157 -.02148449  00000+0 -78347-1 0  9991
2 58539  53.1603 155.3222 0000754  49.3471 201.6000 15.31190078  5429
STARLINK-31019          
1 58540U 23192K   24004.58334491  .00000617  00000+0  34977-4 0  9993
2 58540  53.1599 153.8697 0001856  92.3458 147.5290 15.28010544  5470
STARLINK-31045          
1 58541U 23192L   24003.59641920  .00123376  00000+0  94844-3 0  9998
2 58541  53.1591 156.6887 0002516 318.6519  41.4309 15.71173579  5346
STARLINK-31030          
1 58542U 23192M   24004.58334491 -.01879493  00000+0 -72149-1 0  9994
2 58542  53.1601 153.7697 0001366  96.6014 193.6639 15.29648914  5474
STARLINK-31049          
1 58543U 23192N   24004.25001157 -.02095685  00000+0 -71460-1 0  9998
2 58543  53.1598 155.2799 0001293 102.6084 169.1692 15.33223413  5424
STARLINK-31048          
1 58544U 23192P   24004.25001157 -.02100901  00000+0 -63491-1 0  9992
2 58544  53.1603 153.8144 0001241 102.9013 172.7805 15.36982197  5440
STARLINK-31057          
1 58545U 23192Q   24004.58334491 -.02151254  00000+0 -72398-1 0  9992
2 58545  53.1593 153.6909 0001007 100.1971 229.9428 15.33728292  5480
STARLINK-31050          
1 58546U 23192R   24004.25001157 -.02103402  00000+0 -63258-1 0  9994
2 58546  53.1590 155.2219 0001014 114.0882 187.0377 15.37137118  5373
STARLINK-31063          
1 58547U 23192S   24004.25001157 -.02137195  00000+0 -54559-1 0  9995
2 58547  53.1599 153.3907 0001306  83.2443  43.0854 15.42702079  5236
STARLINK-31016          
1 58548U 23192T   24004.25001157 -.02062844  00000+0 -55484-1 0  9992
2 58548  53.1594 153.7812 0000888  96.7215 195.3333 15.41021410  5449
STARLINK-31053          
1 58549U 23192U   24004.25001157 -.02067434  00000+0 -59385-1 0  9997
2 58549  53.1591 155.2016 0001032  90.5743 220.9910 15.39055447  5428
STARLINK-31056          
1 58550U 23192V   24003.57609032 -.00426957  00000+0 -76975-2 0  9991
2 58550  53.1594 158.0088 0000775 139.0919 221.0149 15.50729178  5327
STARLINK-30999          
1 58551U 23192W   24001.82680418  .00141325  00000+0  95266-3 0  9991
2 58551  53.1593 164.8306 0002574   2.2332 357.8699 15.74198912  3883
STARLINK-31046          
1 58552U 23192X   24003.73876308  .00001964  00000+0  51717-4 0  9997
2 58552  53.1600 157.6010 0001173 141.3341 218.7750 15.43859289  4155
2023-193A               
1 58553U 23193A   24004.47329853  .00012429  00000+0  30551-3 0  9999
2 58553  97.2592  13.7723 0022827 170.5536 189.6144 15.40509586  4070
2023-193B               
1 58554U 23193B   24004.47667642  .00010977  00000+0  27423-3 0  9991
2 58554  97.2591  13.7674 0021981 169.7319 190.4381 15.40069602  4077
2023-193C               
1 58555U 23193C   24004.41690468  .00009818  00000+0  25829-3 0  9998
2 58555  97.2591  13.6950 0021548 165.6126 194.5737 15.38528234  4061
2023-193D               
1 58556U 23193D   24004.50367965  .00016371  00000+0  37500-3 0  9993
2 58556  97.2742  13.9266 0021448 192.5583 167.5133 15.42602813  4092
2023-194A               
1 58557U 23194A   24004.24584756  .00015958  00000+0  67818-3 0  9990
2 58557  34.9956 285.4980 0006119 142.8034 217.3105 15.22197400  3837
2023-194B               
1 58558U 23194B   24004.23939628  .00016404  00000+0  69770-3 0  9998
2 58558  34.9955 285.4442 0000663 231.1174 128.9481 15.22180626  3820
2023-194C               
1 58559U 23194C   24004.24204473  .00011807  00000+0  50539-3 0  9998
2 58559  34.9955 285.4650 0001257  54.5627 305.5204 15.22016562  3847
CZ-2D DEB               
1 58560U 23194D   24004.21317304  .00031205  00000+0  12068-2 0  9993
2 58560  34.9951 285.2259 0008595 160.2225 199.8825 15.25234646  3839
CZ-2D R/B               
1 58561U 23194E   24004.21894121  .00027860  00000+0  10929-2 0  9997
2 58561  34.9955 285.2737 0007902 152.1599 207.9540 15.24785116  3837
ALISIO-1                
1 58562U 23185M   24003.90706915  .00007763  00000+0  57905-3 0  9992
2 58562  97.6445  73.2395 0010033 142.4870 217.7057 15.03099634  3344
INTUITION-1             
1 58565U 23174CW  24004.47968426  .00008711  00000+0  47091-3 0  9992
2 58565  97.4753  81.4923 0015391  82.3179 277.9801 15.14820849  8736
HADES-D (SO-121)        
1 58567U 23174CY  24004.47143003  .00021179  00000+0  11118-2 0  9993
2 58567  97.4772  81.5152 0016132  86.2724 274.0353 15.15633215  8737
UNICORN-2K              
1 58569U 23174DA  24004.45720253  .00041872  00000+0  21157-2 0  9997
2 58569  97.4767  81.5336 0014924  84.5842 275.7093 15.16843481  8734
PRC TEST SPACECRAFT 3   
1 58573U 23195A   24003.90945590  .00028278  00000+0  16688-3 0  9996
2 58573  49.9884 158.0453 0012261   5.5482 354.5629 15.77776035  3201
CZ-2F R/B               
1 58574U 23195B   24004.38987162  .00105256  00000+0  51549-3 0  9998
2 58574  49.9846 155.1450 0013192  13.1395 346.9925 15.81281638  3273
CZ-2F DEB               
1 58575U 23195C   24004.43565560  .00678521  00000+0  56091-2 0  9995
2 58575  49.7671 159.0553 0095734 250.5101 108.5506 15.62120151  3222
CZ-2F DEB               
1 58576U 23195D   24002.85991826  .01858766  18393-2  50333-2 0  9990
2 58576  50.3188 165.1598 0058028 277.6326  81.8074 15.90979737  3007
CZ-2F DEB               
1 58577U 23195E   23362.72052071  .00318244  00000+0  49462-2 0  9990
2 58577  49.8244 195.7594 0168357 208.5542 205.5131 15.38013099  2133
QPS-SAR-5 (TSUKUYOMI-I) 
1 58578U 23196A   24004.34982302  .00006558  00000+0  58056-3 0  9995
2 58578  42.0197 328.7615 0004862  34.7674 325.3467 14.96659453  3028
2023-196B               
1 58579U 23196B   24003.87868463  .00005343  00000+0  47270-3 0  9991
2 58579  42.0209 331.2890 0006074  33.3798 326.7409 14.96925492  2946
2023-196C               
1 58580U 23196C   24004.30593608  .01422144  78497-5  19189-2 0  9999
2 58580  42.0065 316.0166 0137109  48.4698 312.7828 15.89773300  3151
YAOGAN-41               
1 58582U 23197A   24003.61927547 -.00000337  00000+0  00000+0 0  9992
2 58582   4.9593 307.7655 0012812 171.3215 329.8593  1.00272534   347
CZ-5 R/B                
1 58583U 23197B   24003.91162035  .00002097  00000+0  99538-3 0  9991
2 58583  19.0563 302.2779 7174662 193.3020 126.3122  2.39904113   476
